{"type":"FeatureCollection","features":[{"type":"Feature","properties":{"commune":"Arafat","department":"Nouakchott-Sud"},"geometry":{"type":"Polygon","coordinates":[[[-15.94879999899996,18.029899999000065],[-15.9453,18.0395],[-15.9427,18.047],[-15.9408,18.0502],[-15.940099998999926,18.051899999000057],[-15.9385,18.05660000100005],[-15.937100000999976,18.0616],[-15.938100000999952,18.062100001000033],[-15.9385,18.0623],[-15.935799998999983,18.071],[-15.9652,18.0791],[-15.97000000099996,18.068299999000033],[-15.971999998999934,18.0636],[-15.9739,18.0594],[-15.975,18.0569],[-15.975400000999969,18.0557],[-15.9756,18.053400001000057],[-15.975400000999969,18.0517],[-15.974400000999935,18.047700001000067],[-15.973300000999927,18.043199999000024],[-15.9724,18.039100001000065],[-15.9723,18.03690000100005],[-15.9726,18.034499999000047],[-15.973099998999942,18.0319],[-15.9647,18.0306],[-15.964500000999976,18.02920000100005],[-15.960200000999976,18.030099999000072],[-15.94879999899996,18.029899999000065]]]}},{"type":"Feature","properties":{"commune":"Dar Naim","department":"Nouakchott-Nord"},"geometry":{"type":"Polygon","coordinates":[[[-15.935799998999983,18.071],[-15.935000000999935,18.0734],[-15.932700000999944,18.087300001000074],[-15.9278,18.0923],[-15.9232,18.0963],[-15.92139999899996,18.09830000100004],[-15.91939999899995,18.1009],[-15.9134,18.1088],[-15.888800000999936,18.1416],[-15.9179,18.1414],[-15.9212,18.1383],[-15.922800000999928,18.136600001000033],[-15.9257,18.133199999000055],[-15.92720000099996,18.131200001000025],[-15.9286,18.129699999000024],[-15.9384,18.117000001000065],[-15.945,18.1086],[-15.9471,18.10600000100004],[-15.9529,18.098999999000057],[-15.953500000999952,18.09830000100004],[-15.9604,18.088400001000025],[-15.960999998999966,18.088],[-15.9652,18.0791],[-15.935799998999983,18.071]]]}},{"type":"Feature","properties":{"commune":"El Mina","department":"Nouakchott-Sud"},"geometry":{"type":"Polygon","coordinates":[[[-15.97000000099996,18.068299999000033],[-15.974099998999975,18.069800001000033],[-15.9748,18.0702],[-15.975500000999943,18.07090000100004],[-15.975500000999943,18.07169999900003],[-15.975500000999943,18.0724],[-15.975199998999926,18.073999999000023],[-15.9746,18.077299999000047],[-15.977,18.0777],[-15.9771,18.0777],[-15.982100000999935,18.078400001000034],[-15.9823,18.07709999900004],[-15.9827,18.075999999000032],[-15.983200000999943,18.0755],[-15.985099998999942,18.074100001000033],[-15.9913,18.0702],[-16.01129999899996,18.058],[-16.02470000099993,18.055],[-16.0439,18.050899999000023],[-16.0436,17.976],[-15.9724,17.976500001000034],[-15.977299998999968,18.005100001000073],[-15.97770000099996,18.008099999000024],[-15.9771,18.0118],[-15.973099998999942,18.0319],[-15.9726,18.034499999000047],[-15.9723,18.03690000100005],[-15.9724,18.039100001000065],[-15.973300000999927,18.043199999000024],[-15.974400000999935,18.047700001000067],[-15.975400000999969,18.0517],[-15.9756,18.053400001000057],[-15.975400000999969,18.0557],[-15.975,18.0569],[-15.9739,18.0594],[-15.971999998999934,18.0636],[-15.97000000099996,18.068299999000033]]]}},{"type":"Feature","properties":{"commune":"Ksar","department":"Nouakchott-Ouest"},"geometry":{"type":"Polygon","coordinates":[[[-15.9652,18.0791],[-15.960999998999966,18.088],[-15.9604,18.088400001000025],[-15.953500000999952,18.09830000100004],[-15.9529,18.098999999000057],[-15.9471,18.10600000100004],[-15.945,18.1086],[-15.9384,18.117000001000065],[-15.943700000999968,18.1209],[-15.944499998999959,18.11989999900004],[-15.94690000099996,18.1215],[-15.9519,18.12340000100005],[-15.947000000999935,18.176899999000057],[-15.9965,18.1767],[-15.9815,18.1383],[-15.9778,18.126499999000032],[-15.975199998999926,18.119200001000024],[-15.971899998999959,18.111099999000032],[-15.9714,18.1086],[-15.9748,18.1043],[-15.9756,18.10019999900004],[-15.9682,18.0988],[-15.9684,18.09789999900005],[-15.968,18.097200001000033],[-15.97000000099996,18.0866],[-15.9749,18.08740000100005],[-15.976,18.0814],[-15.976399998999966,18.07970000100005],[-15.9769,18.0788],[-15.977399998999942,18.078400001000034],[-15.977,18.0777],[-15.9746,18.077299999000047],[-15.975199998999926,18.073999999000023],[-15.975500000999943,18.0724],[-15.975500000999943,18.07169999900003],[-15.975500000999943,18.07090000100004],[-15.9748,18.0702],[-15.974099998999975,18.069800001000033],[-15.97000000099996,18.068299999000033],[-15.9652,18.0791]]]}},{"type":"Feature","properties":{"commune":"Riyadh","department":"Nouakchott-Sud"},"geometry":{"type":"Polygon","coordinates":[[[-15.973099998999942,18.0319],[-15.9771,18.0118],[-15.97770000099996,18.008099999000024],[-15.977299998999968,18.005100001000073],[-15.9724,17.976500001000034],[-15.887700000999928,17.9769],[-15.8882,18.030300001000057],[-15.94879999899996,18.029899999000065],[-15.960200000999976,18.030099999000072],[-15.964500000999976,18.02920000100005],[-15.9647,18.0306],[-15.973099998999942,18.0319]]]}},{"type":"Feature","properties":{"commune":"Sebkha","department":"Nouakchott-Ouest"},"geometry":{"type":"Polygon","coordinates":[[[-15.982100000999935,18.078400001000034],[-15.982999998999958,18.07860000100004],[-15.9833,18.0788],[-15.98389999899996,18.07970000100005],[-15.984099998999966,18.0802],[-15.9844,18.08060000100005],[-15.984999998999967,18.081499999000073],[-15.985300000999928,18.0824],[-15.9859,18.0844],[-15.986300000999961,18.0867],[-15.9902,18.0855],[-15.99389999899995,18.0843],[-15.9955,18.084100001000024],[-15.997099998999943,18.084100001000024],[-15.998299998999983,18.0843],[-15.999199998999927,18.0845],[-16.000499998999942,18.085000001000026],[-16.00170000099996,18.0857],[-16.0079,18.0899],[-16.0188,18.097200001000033],[-16.0221,18.0973],[-16.024,18.0973],[-16.025900000999968,18.0975],[-16.026900000999944,18.0976],[-16.0285,18.0978],[-16.044299998999975,18.0996],[-16.0439,18.050899999000023],[-16.02470000099993,18.055],[-16.01129999899996,18.058],[-15.9913,18.0702],[-15.985099998999942,18.074100001000033],[-15.983200000999943,18.0755],[-15.9827,18.075999999000032],[-15.9823,18.07709999900004],[-15.982100000999935,18.078400001000034]]]}},{"type":"Feature","properties":{"commune":"Tevragh Zeina","department":"Nouakchott-Ouest"},"geometry":{"type":"Polygon","coordinates":[[[-15.977,18.0777],[-15.977399998999942,18.078400001000034],[-15.9769,18.0788],[-15.976399998999966,18.07970000100005],[-15.976,18.0814],[-15.9749,18.08740000100005],[-15.97000000099996,18.0866],[-15.968,18.097200001000033],[-15.9684,18.09789999900005],[-15.9682,18.0988],[-15.9756,18.10019999900004],[-15.9748,18.1043],[-15.9714,18.1086],[-15.971899998999959,18.111099999000032],[-15.975199998999926,18.119200001000024],[-15.9778,18.126499999000032],[-15.9815,18.1383],[-15.9965,18.1767],[-16.0448,18.1764],[-16.0447,18.163699999000073],[-16.044600000999935,18.158600001000025],[-16.044600000999935,18.155099999000072],[-16.04450000099996,18.1348],[-16.04439999899995,18.123600001000057],[-16.044299998999975,18.0996],[-16.0285,18.0978],[-16.026900000999944,18.0976],[-16.025900000999968,18.0975],[-16.024,18.0973],[-16.0221,18.0973],[-16.0188,18.097200001000033],[-16.0079,18.0899],[-16.00170000099996,18.0857],[-16.000499998999942,18.085000001000026],[-15.999199998999927,18.0845],[-15.998299998999983,18.0843],[-15.997099998999943,18.084100001000024],[-15.9955,18.084100001000024],[-15.99389999899995,18.0843],[-15.9902,18.0855],[-15.986300000999961,18.0867],[-15.9859,18.0844],[-15.985300000999928,18.0824],[-15.984999998999967,18.081499999000073],[-15.9844,18.08060000100005],[-15.984099998999966,18.0802],[-15.98389999899996,18.07970000100005],[-15.9833,18.0788],[-15.982999998999958,18.07860000100004],[-15.982100000999935,18.078400001000034],[-15.9771,18.0777],[-15.977,18.0777]]]}},{"type":"Feature","properties":{"commune":"Teyarett","department":"Nouakchott-Nord"},"geometry":{"type":"Polygon","coordinates":[[[-15.9179,18.1414],[-15.8934,18.177200001000074],[-15.8949,18.177200001000074],[-15.947000000999935,18.176899999000057],[-15.9519,18.12340000100005],[-15.94690000099996,18.1215],[-15.944499998999959,18.11989999900004],[-15.943700000999968,18.1209],[-15.9384,18.117000001000065],[-15.9286,18.129699999000024],[-15.92720000099996,18.131200001000025],[-15.9257,18.133199999000055],[-15.922800000999928,18.136600001000033],[-15.9212,18.1383],[-15.9179,18.1414]]]}},{"type":"Feature","properties":{"commune":"Toujounine","department":"Nouakchott-Nord"},"geometry":{"type":"Polygon","coordinates":[[[-15.94879999899996,18.029899999000065],[-15.8882,18.030300001000057],[-15.888499998999976,18.092],[-15.888800000999936,18.1416],[-15.9134,18.1088],[-15.91939999899995,18.1009],[-15.92139999899996,18.09830000100004],[-15.9232,18.0963],[-15.9278,18.0923],[-15.932700000999944,18.087300001000074],[-15.935000000999935,18.0734],[-15.935799998999983,18.071],[-15.9385,18.0623],[-15.938100000999952,18.062100001000033],[-15.937100000999976,18.0616],[-15.9385,18.05660000100005],[-15.940099998999926,18.051899999000057],[-15.9408,18.0502],[-15.9427,18.047],[-15.9453,18.0395],[-15.94879999899996,18.029899999000065]]]}}]}